{"type": "FeatureCollection", "features": [{"type": "Feature", "id": 4782, "geometry": {"type": "Point", "coordinates": [8.29833300000007, 50.0108020000001]}, "properties": {"FID": 4782, "OBJECTID": 5979, "Betreiber": "ESWE Versorgungs AG", "Adresse": "Zelterstraße 1", "Postleitza": "55246 Wiesbaden", "Bundesland": "Hessen", "Längengra": 8.298333, "Breitengra": 50.010802, "Inbetriebn": 1558310400000, "Anschlussl": 44, "Art_der_La": "Normalladeeinrichtung", "Anzahl_Lad": 2, "Steckertyp": "AC Steckdose Typ 2", "P1__kW_": 22, "Public_Key": " ", "Steckert_1": "AC Steckdose Typ 2", "P2_in_kW": 22, "Public_K_1": " ", "Steckert_2": " ", "P3__kW_": 0, "Public_K_2": " ", "Steckert_3": " ", "P4__kW_": 0, "Public_K_3": " "}}, {"type": "Feature", "id": 4783, "geometry": {"type": "Point", "coordinates": [8.28969000000006, 50.02203]}, "properties": {"FID": 4783, "OBJECTID": 5980, "Betreiber": "Allego GmbH", "Adresse": "Boelckestrasse 78", "Postleitza": "55252 Mainz-Kastel", "Bundesland": "Hessen", "Längengra": 8.28969, "Breitengra": 50.02203, "Inbetriebn": 1482796800000, "Anschlussl": 93, "Art_der_La": "Schnellladeeinrichtung", "Anzahl_Lad": 2, "Steckertyp": "DC Kupplung Combo, DC CHAdeMO", "P1__kW_": 50, "Public_Key": " ", "Steckert_1": "AC Kupplung Typ 2", "P2_in_kW": 43, "Public_K_1": " ", "Steckert_2": " ", "P3__kW_": 0, "Public_K_2": " ", "Steckert_3": " ", "P4__kW_": 0, "Public_K_3": " "}}, {"type": "Feature", "id": 4784, "geometry": {"type": "Point", "coordinates": [8.26852700000006, 50.023718]}, "properties": {"FID": 4784, "OBJECTID": 5981, "Betreiber": "ESWE Versorgungs AG", "Adresse": "Wiesbadener Straße 104", "Postleitza": "55252 Wiesbaden", "Bundesland": "Hessen", "Längengra": 8.268527, "Breitengra": 50.023718, "Inbetriebn": 1508112000000, "Anschlussl": 88, "Art_der_La": "Normalladeeinrichtung", "Anzahl_Lad": 4, "Steckertyp": "AC Steckdose Typ 2", "P1__kW_": 22, "Public_Key": " ", "Steckert_1": "AC Steckdose Typ 2", "P2_in_kW": 22, "Public_K_1": " ", "Steckert_2": "AC Steckdose Typ 2", "P3__kW_": 22, "Public_K_2": " ", "Steckert_3": "AC Steckdose Typ 2", "P4__kW_": 22, "Public_K_3": " "}}, {"type": "Feature", "id": 4785, "geometry": {"type": "Point", "coordinates": [8.27483100000006, 50.0271730000001]}, "properties": {"FID": 4785, "OBJECTID": 5982, "Betreiber": "ESWE Versorgungs AG", "Adresse": "Peter-Sander-Straße 14A", "Postleitza": "55252 Wiesbaden", "Bundesland": "Hessen", "Längengra": 8.274831, "Breitengra": 50.027173, "Inbetriebn": 1541721600000, "Anschlussl": 44, "Art_der_La": "Normalladeeinrichtung", "Anzahl_Lad": 2, "Steckertyp": "AC Steckdose Typ 2", "P1__kW_": 22, "Public_Key": " ", "Steckert_1": "AC Steckdose Typ 2", "P2_in_kW": 22, "Public_K_1": " ", "Steckert_2": " ", "P3__kW_": 0, "Public_K_2": " ", "Steckert_3": " ", "P4__kW_": 0, "Public_K_3": " "}}, {"type": "Feature", "id": 4786, "geometry": {"type": "Point", "coordinates": [8.27485800000005, 50.028266]}, "properties": {"FID": 4786, "OBJECTID": 5983, "Betreiber": "FES Frankfurter Entsorgungs- und Service GmbH", "Adresse": "Fritz-Ullmann-Straße  8-10", "Postleitza": "55252 Wiesbaden", "Bundesland": "Hessen", "Längengra": 8.274858, "Breitengra": 50.028266, "Inbetriebn": 1571616000000, "Anschlussl": 22, "Art_der_La": "Normalladeeinrichtung", "Anzahl_Lad": 2, "Steckertyp": "AC Steckdose Typ 2", "P1__kW_": 22, "Public_Key": " ", "Steckert_1": "AC Steckdose Typ 2", "P2_in_kW": 22, "Public_K_1": " ", "Steckert_2": " ", "P3__kW_": 0, "Public_K_2": " ", "Steckert_3": " ", "P4__kW_": 0, "Public_K_3": " "}}, {"type": "Feature", "id": 4787, "geometry": {"type": "Point", "coordinates": [8.27532300000007, 50.02802]}, "properties": {"FID": 4787, "OBJECTID": 5984, "Betreiber": "FES Frankfurter Entsorgungs- und Service GmbH", "Adresse": "Fritz-Ullmann-Straße  8-10", "Postleitza": "55252 Wiesbaden", "Bundesland": "Hessen", "Längengra": 8.275323, "Breitengra": 50.02802, "Inbetriebn": 1571616000000, "Anschlussl": 22, "Art_der_La": "Normalladeeinrichtung", "Anzahl_Lad": 2, "Steckertyp": "AC Steckdose Typ 2", "P1__kW_": 22, "Public_Key": " ", "Steckert_1": "AC Steckdose Typ 2", "P2_in_kW": 22, "Public_K_1": " ", "Steckert_2": " ", "P3__kW_": 0, "Public_K_2": " ", "Steckert_3": " ", "P4__kW_": 0, "Public_K_3": " "}}, {"type": "Feature", "id": 4788, "geometry": {"type": "Point", "coordinates": [8.28138200000006, 50.0281600000001]}, "properties": {"FID": 4788, "OBJECTID": 5985, "Betreiber": "ESWE Versorgungs AG", "Adresse": "Anna-Birle-Straße", "Postleitza": "55252 Wiesbaden", "Bundesland": "Hessen", "Längengra": 8.281382, "Breitengra": 50.02816, "Inbetriebn": 1579478400000, "Anschlussl": 44, "Art_der_La": "Normalladeeinrichtung", "Anzahl_Lad": 2, "Steckertyp": "AC Steckdose Typ 2", "P1__kW_": 22, "Public_Key": " ", "Steckert_1": "AC Steckdose Typ 2", "P2_in_kW": 22, "Public_K_1": " ", "Steckert_2": " ", "P3__kW_": 0, "Public_K_2": " ", "Steckert_3": " ", "P4__kW_": 0, "Public_K_3": " "}}, {"type": "Feature", "id": 6013, "geometry": {"type": "Point", "coordinates": [8.26251500000006, 50.082703]}, "properties": {"FID": 6013, "OBJECTID": 6403, "Betreiber": "ESWE Versorgungs AG", "Adresse": "Bierstadter Straße 53", "Postleitza": "65189 Wiesbaden", "Bundesland": "Hessen", "Längengra": 8.262515, "Breitengra": 50.082703, "Inbetriebn": 1537401600000, "Anschlussl": 44, "Art_der_La": "Normalladeeinrichtung", "Anzahl_Lad": 2, "Steckertyp": "AC Steckdose Typ 2", "P1__kW_": 22, "Public_Key": " ", "Steckert_1": "AC Steckdose Typ 2", "P2_in_kW": 22, "Public_K_1": " ", "Steckert_2": " ", "P3__kW_": 0, "Public_K_2": " ", "Steckert_3": " ", "P4__kW_": 0, "Public_K_3": " "}}, {"type": "Feature", "id": 6407, "geometry": {"type": "Point", "coordinates": [8.26800800000007, 50.060745]}, "properties": {"FID": 6407, "OBJECTID": 6404, "Betreiber": "ESWE Versorgungs AG", "Adresse": "SIegfriedring 25", "Postleitza": "65189 Wiesbaden", "Bundesland": "Hessen", "Längengra": 8.268008, "Breitengra": 50.060745, "Inbetriebn": 1540944000000, "Anschlussl": 44, "Art_der_La": "Normalladeeinrichtung", "Anzahl_Lad": 2, "Steckertyp": "AC Steckdose Typ 2", "P1__kW_": 22, "Public_Key": " ", "Steckert_1": "AC Steckdose Typ 2", "P2_in_kW": 22, "Public_K_1": " ", "Steckert_2": " ", "P3__kW_": 0, "Public_K_2": " ", "Steckert_3": " ", "P4__kW_": 0, "Public_K_3": " "}}, {"type": "Feature", "id": 6998, "geometry": {"type": "Point", "coordinates": [8.28078000000005, 50.0909500000001]}, "properties": {"FID": 6998, "OBJECTID": 6405, "Betreiber": "Deutscher Genossenschafts-Verlag eG", "Adresse": "Leipziger Straße 35", "Postleitza": "65191 Wiesbaden", "Bundesland": "Hessen", "Längengra": 8.28078, "Breitengra": 50.09095, "Inbetriebn": 1415750400000, "Anschlussl": 100, "Art_der_La": "Schnellladeeinrichtung", "Anzahl_Lad": 2, "Steckertyp": "AC Kupplung Typ 2", "P1__kW_": 43, "Public_Key": " ", "Steckert_1": "DC Kupplung Combo, DC CHAdeMO", "P2_in_kW": 50, "Public_K_1": " ", "Steckert_2": " ", "P3__kW_": 0, "Public_K_2": " ", "Steckert_3": " ", "P4__kW_": 0, "Public_K_3": " "}}, {"type": "Feature", "id": 7204, "geometry": {"type": "Point", "coordinates": [8.28970400000003, 50.088756]}, "properties": {"FID": 7204, "OBJECTID": 6406, "Betreiber": "ALDI GmbH & Co. KG", "Adresse": "Rostockerstraße 6", "Postleitza": "65191 Wiesbaden", "Bundesland": "Hessen", "Längengra": 8.289704, "Breitengra": 50.088756, "Inbetriebn": 1434499200000, "Anschlussl": 20, "Art_der_La": "Normalladeeinrichtung", "Anzahl_Lad": 1, "Steckertyp": "AC Steckdose Typ 2, DC Kupplung Combo, DC CHAdeMO", "P1__kW_": 20, "Public_Key": " ", "Steckert_1": " ", "P2_in_kW": 0, "Public_K_1": " ", "Steckert_2": " ", "P3__kW_": 0, "Public_K_2": " ", "Steckert_3": " ", "P4__kW_": 0, "Public_K_3": " "}}, {"type": "Feature", "id": 7205, "geometry": {"type": "Point", "coordinates": [8.22701500000005, 50.0949900000001]}, "properties": {"FID": 7205, "OBJECTID": 6407, "Betreiber": "ESWE Versorgungs AG", "Adresse": "Nerotal 77", "Postleitza": "65193 Wiesbaden", "Bundesland": "Hessen", "Längengra": 8.227015, "Breitengra": 50.09499, "Inbetriebn": 1541548800000, "Anschlussl": 44, "Art_der_La": "Normalladeeinrichtung", "Anzahl_Lad": 2, "Steckertyp": "AC Steckdose Typ 2", "P1__kW_": 22, "Public_Key": " ", "Steckert_1": "AC Steckdose Typ 2", "P2_in_kW": 22, "Public_K_1": " ", "Steckert_2": " ", "P3__kW_": 0, "Public_K_2": " ", "Steckert_3": " ", "P4__kW_": 0, "Public_K_3": " "}}, {"type": "Feature", "id": 7206, "geometry": {"type": "Point", "coordinates": [8.23515500000008, 50.0841760000001]}, "properties": {"FID": 7206, "OBJECTID": 6408, "Betreiber": "Hotel Oranien Gaststätten u Hotelbetriebsges. mbH", "Adresse": "Platter Straße 2", "Postleitza": "65193 Wiesbaden", "Bundesland": "Hessen", "Längengra": 8.235155, "Breitengra": 50.084176, "Inbetriebn": 1458432000000, "Anschlussl": 11, "Art_der_La": "Normalladeeinrichtung", "Anzahl_Lad": 2, "Steckertyp": "AC Steckdose Typ 2", "P1__kW_": 11, "Public_Key": " ", "Steckert_1": "AC Steckdose Typ 2", "P2_in_kW": 11, "Public_K_1": " ", "Steckert_2": " ", "P3__kW_": 0, "Public_K_2": " ", "Steckert_3": " ", "P4__kW_": 0, "Public_K_3": " "}}, {"type": "Feature", "id": 7207, "geometry": {"type": "Point", "coordinates": [8.23588800000005, 50.091348]}, "properties": {"FID": 7207, "OBJECTID": 6409, "Betreiber": "ESWE Versorgungs AG", "Adresse": "Nerotal 6", "Postleitza": "65193 Wiesbaden", "Bundesland": "Hessen", "Längengra": 8.235888, "Breitengra": 50.091348, "Inbetriebn": 1541548800000, "Anschlussl": 44, "Art_der_La": "Normalladeeinrichtung", "Anzahl_Lad": 2, "Steckertyp": "AC Steckdose Typ 2", "P1__kW_": 22, "Public_Key": " ", "Steckert_1": "AC Steckdose Typ 2", "P2_in_kW": 22, "Public_K_1": " ", "Steckert_2": " ", "P3__kW_": 0, "Public_K_2": " ", "Steckert_3": " ", "P4__kW_": 0, "Public_K_3": " "}}, {"type": "Feature", "id": 7208, "geometry": {"type": "Point", "coordinates": [8.24649400000004, 50.085513]}, "properties": {"FID": 7208, "OBJECTID": 6410, "Betreiber": "ESWE Versorgungs AG", "Adresse": "Sonnenberger Straße 14", "Postleitza": "65193 Wiesbaden", "Bundesland": "Hessen", "Längengra": 8.246494, "Breitengra": 50.085513, "Inbetriebn": 1551657600000, "Anschlussl": 44, "Art_der_La": "Normalladeeinrichtung", "Anzahl_Lad": 2, "Steckertyp": "AC Steckdose Typ 2", "P1__kW_": 22, "Public_Key": " ", "Steckert_1": "AC Steckdose Typ 2", "P2_in_kW": 22, "Public_K_1": " ", "Steckert_2": " ", "P3__kW_": 0, "Public_K_2": " ", "Steckert_3": " ", "P4__kW_": 0, "Public_K_3": " "}}, {"type": "Feature", "id": 7209, "geometry": {"type": "Point", "coordinates": [8.26415300000002, 50.1010210000001]}, "properties": {"FID": 7209, "OBJECTID": 6411, "Betreiber": "ESWE Versorgungs AG", "Adresse": "Louis-Buchelt-Straße 1", "Postleitza": "65193 Wiesbaden", "Bundesland": "Hessen", "Längengra": 8.264153, "Breitengra": 50.101021, "Inbetriebn": 1541721600000, "Anschlussl": 44, "Art_der_La": "Normalladeeinrichtung", "Anzahl_Lad": 2, "Steckertyp": "AC Steckdose Typ 2", "P1__kW_": 22, "Public_Key": " ", "Steckert_1": "AC Steckdose Typ 2", "P2_in_kW": 22, "Public_K_1": " ", "Steckert_2": " ", "P3__kW_": 0, "Public_K_2": " ", "Steckert_3": " ", "P4__kW_": 0, "Public_K_3": " "}}, {"type": "Feature", "id": 7210, "geometry": {"type": "Point", "coordinates": [8.19121300000006, 50.1022530000001]}, "properties": {"FID": 7210, "OBJECTID": 6412, "Betreiber": "ESWE Versorgungs AG", "Adresse": "Wilfried-Ries-Straße 22", "Postleitza": "65195 Wiesbaden", "Bundesland": "Hessen", "Längengra": 8.191213, "Breitengra": 50.102253, "Inbetriebn": 1541721600000, "Anschlussl": 44, "Art_der_La": "Normalladeeinrichtung", "Anzahl_Lad": 2, "Steckertyp": "AC Steckdose Typ 2", "P1__kW_": 22, "Public_Key": " ", "Steckert_1": "AC Steckdose Typ 2", "P2_in_kW": 22, "Public_K_1": " ", "Steckert_2": " ", "P3__kW_": 0, "Public_K_2": " ", "Steckert_3": " ", "P4__kW_": 0, "Public_K_3": " "}}, {"type": "Feature", "id": 7211, "geometry": {"type": "Point", "coordinates": [8.22014100000007, 50.134553]}, "properties": {"FID": 7211, "OBJECTID": 6413, "Betreiber": "ESWE Versorgungs AG", "Adresse": "An der B417", "Postleitza": "65195 Wiesbaden", "Bundesland": "Hessen", "Längengra": 8.220141, "Breitengra": 50.134553, "Inbetriebn": 1535328000000, "Anschlussl": 44, "Art_der_La": "Normalladeeinrichtung", "Anzahl_Lad": 2, "Steckertyp": "AC Steckdose Typ 2", "P1__kW_": 22, "Public_Key": " ", "Steckert_1": "AC Steckdose Typ 2", "P2_in_kW": 22, "Public_K_1": " ", "Steckert_2": " ", "P3__kW_": 0, "Public_K_2": " ", "Steckert_3": " ", "P4__kW_": 0, "Public_K_3": " "}}, {"type": "Feature", "id": 7212, "geometry": {"type": "Point", "coordinates": [8.22073000000006, 50.0966570000001]}, "properties": {"FID": 7212, "OBJECTID": 6414, "Betreiber": "ESWE Versorgungs AG", "Adresse": "Platter Straße", "Postleitza": "65195 Wiesbaden", "Bundesland": "Hessen", "Längengra": 8.22073, "Breitengra": 50.096657, "Inbetriebn": 1535328000000, "Anschlussl": 44, "Art_der_La": "Normalladeeinrichtung", "Anzahl_Lad": 2, "Steckertyp": "AC Steckdose Typ 2", "P1__kW_": 22, "Public_Key": " ", "Steckert_1": "AC Steckdose Typ 2", "P2_in_kW": 22, "Public_K_1": " ", "Steckert_2": " ", "P3__kW_": 0, "Public_K_2": " ", "Steckert_3": " ", "P4__kW_": 0, "Public_K_3": " "}}, {"type": "Feature", "id": 7213, "geometry": {"type": "Point", "coordinates": [8.22573800000004, 50.0714740000001]}, "properties": {"FID": 7213, "OBJECTID": 6415, "Betreiber": "ESWE Versorgungs AG", "Adresse": "Jean-Monnet-Straße 1", "Postleitza": "65197 Wiesbaden", "Bundesland": "Hessen", "Längengra": 8.225738, "Breitengra": 50.071474, "Inbetriebn": 1510531200000, "Anschlussl": 44, "Art_der_La": "Normalladeeinrichtung", "Anzahl_Lad": 2, "Steckertyp": "AC Steckdose Typ 2", "P1__kW_": 22, "Public_Key": " ", "Steckert_1": "AC Steckdose Typ 2", "P2_in_kW": 22, "Public_K_1": " ", "Steckert_2": " ", "P3__kW_": 0, "Public_K_2": " ", "Steckert_3": " ", "P4__kW_": 0, "Public_K_3": " "}}, {"type": "Feature", "id": 7214, "geometry": {"type": "Point", "coordinates": [8.19462600000003, 50.07291]}, "properties": {"FID": 7214, "OBJECTID": 6416, "Betreiber": "ESWE Versorgungs AG", "Adresse": "Am Rheineck", "Postleitza": "65199 Wiesbaden", "Bundesland": "Hessen", "Längengra": 8.194626, "Breitengra": 50.07291, "Inbetriebn": 1539129600000, "Anschlussl": 44, "Art_der_La": "Normalladeeinrichtung", "Anzahl_Lad": 2, "Steckertyp": "AC Steckdose Typ 2", "P1__kW_": 22, "Public_Key": " ", "Steckert_1": "AC Steckdose Typ 2", "P2_in_kW": 22, "Public_K_1": " ", "Steckert_2": " ", "P3__kW_": 0, "Public_K_2": " ", "Steckert_3": " ", "P4__kW_": 0, "Public_K_3": " "}}, {"type": "Feature", "id": 7215, "geometry": {"type": "Point", "coordinates": [8.20609500000006, 50.045937]}, "properties": {"FID": 7215, "OBJECTID": 6417, "Betreiber": "ESWE Versorgungs AG", "Adresse": "Schoßbergstraße 9", "Postleitza": "65201 Wiesbaden", "Bundesland": "Hessen", "Längengra": 8.206095, "Breitengra": 50.045937, "Inbetriebn": 1511136000000, "Anschlussl": 44, "Art_der_La": "Normalladeeinrichtung", "Anzahl_Lad": 2, "Steckertyp": "AC Steckdose Typ 2", "P1__kW_": 22, "Public_Key": " ", "Steckert_1": "AC Steckdose Typ 2", "P2_in_kW": 22, "Public_K_1": " ", "Steckert_2": " ", "P3__kW_": 0, "Public_K_2": " ", "Steckert_3": " ", "P4__kW_": 0, "Public_K_3": " "}}, {"type": "Feature", "id": 7216, "geometry": {"type": "Point", "coordinates": [8.21995000000004, 50.05012]}, "properties": {"FID": 7216, "OBJECTID": 6418, "Betreiber": "Pfalzwerke AG", "Adresse": "Friedrich-Bergiusstraße 21", "Postleitza": "65203 Wiesbaden", "Bundesland": "Hessen", "Längengra": 8.21995, "Breitengra": 50.05012, "Inbetriebn": 1575849600000, "Anschlussl": 75, "Art_der_La": "Schnellladeeinrichtung", "Anzahl_Lad": 2, "Steckertyp": "AC Kupplung Typ 2", "P1__kW_": 43, "Public_Key": " ", "Steckert_1": "DC Kupplung Combo, DC CHAdeMO", "P2_in_kW": 50, "Public_K_1": " ", "Steckert_2": " ", "P3__kW_": 0, "Public_K_2": " ", "Steckert_3": " ", "P4__kW_": 0, "Public_K_3": " "}}, {"type": "Feature", "id": 7217, "geometry": {"type": "Point", "coordinates": [8.21995800000008, 50.0500690000001]}, "properties": {"FID": 7217, "OBJECTID": 6419, "Betreiber": "Pfalzwerke AG", "Adresse": "Friedrich-Bergiusstraße 21", "Postleitza": "65203 Wiesbaden", "Bundesland": "Hessen", "Längengra": 8.219958, "Breitengra": 50.050069, "Inbetriebn": 1575849600000, "Anschlussl": 45, "Art_der_La": "Normalladeeinrichtung", "Anzahl_Lad": 2, "Steckertyp": "AC Steckdose Typ 2", "P1__kW_": 22, "Public_Key": " ", "Steckert_1": "AC Steckdose Typ 2", "P2_in_kW": 22, "Public_K_1": " ", "Steckert_2": " ", "P3__kW_": 0, "Public_K_2": " ", "Steckert_3": " ", "P4__kW_": 0, "Public_K_3": " "}}, {"type": "Feature", "id": 7218, "geometry": {"type": "Point", "coordinates": [8.23627100000004, 50.0391050000001]}, "properties": {"FID": 7218, "OBJECTID": 6420, "Betreiber": "ESWE Versorgungs AG", "Adresse": "Am Schlosspark", "Postleitza": "65203 Wiesbaden", "Bundesland": "Hessen", "Längengra": 8.236271, "Breitengra": 50.039105, "Inbetriebn": 1539129600000, "Anschlussl": 44, "Art_der_La": "Normalladeeinrichtung", "Anzahl_Lad": 2, "Steckertyp": "AC Steckdose Typ 2", "P1__kW_": 22, "Public_Key": " ", "Steckert_1": "AC Steckdose Typ 2", "P2_in_kW": 22, "Public_K_1": " ", "Steckert_2": " ", "P3__kW_": 0, "Public_K_2": " ", "Steckert_3": " ", "P4__kW_": 0, "Public_K_3": " "}}, {"type": "Feature", "id": 7219, "geometry": {"type": "Point", "coordinates": [8.29103200000003, 50.053115]}, "properties": {"FID": 7219, "OBJECTID": 6421, "Betreiber": "ESWE Versorgungs AG", "Adresse": "Kreuzberger Ring 36", "Postleitza": "65205 Wiesbaden", "Bundesland": "Hessen", "Längengra": 8.291032, "Breitengra": 50.053115, "Inbetriebn": 1502755200000, "Anschlussl": 88, "Art_der_La": "Normalladeeinrichtung", "Anzahl_Lad": 4, "Steckertyp": "AC Steckdose Typ 2", "P1__kW_": 22, "Public_Key": " ", "Steckert_1": "AC Steckdose Typ 2", "P2_in_kW": 22, "Public_K_1": " ", "Steckert_2": "AC Steckdose Typ 2", "P3__kW_": 22, "Public_K_2": " ", "Steckert_3": "AC Steckdose Typ 2", "P4__kW_": 22, "Public_K_3": " "}}, {"type": "Feature", "id": 7220, "geometry": {"type": "Point", "coordinates": [8.25584000000003, 50.1176310000001]}, "properties": {"FID": 7220, "OBJECTID": 6422, "Betreiber": "ESWE Versorgungs AG", "Adresse": "Goldsteintal 50", "Postleitza": "65207 Wiesbaden", "Bundesland": "Hessen", "Längengra": 8.25584, "Breitengra": 50.117631, "Inbetriebn": 1550448000000, "Anschlussl": 44, "Art_der_La": "Normalladeeinrichtung", "Anzahl_Lad": 2, "Steckertyp": "AC Steckdose Typ 2", "P1__kW_": 22, "Public_Key": " ", "Steckert_1": "AC Steckdose Typ 2", "P2_in_kW": 22, "Public_K_1": " ", "Steckert_2": " ", "P3__kW_": 0, "Public_K_2": " ", "Steckert_3": " ", "P4__kW_": 0, "Public_K_3": " "}}, {"type": "Feature", "id": 7221, "geometry": {"type": "Point", "coordinates": [8.35174200000006, 50.096305]}, "properties": {"FID": 7221, "OBJECTID": 6423, "Betreiber": "Charge-ON GmbH", "Adresse": "Medenbach West BAB3", "Postleitza": "65207 Wiesbaden", "Bundesland": "Hessen", "Längengra": 8.351742, "Breitengra": 50.096305, "Inbetriebn": 1501200000000, "Anschlussl": 93, "Art_der_La": "Schnellladeeinrichtung", "Anzahl_Lad": 2, "Steckertyp": "AC Kupplung Typ 2", "P1__kW_": 43, "Public_Key": " ", "Steckert_1": "DC Kupplung Combo, DC CHAdeMO", "P2_in_kW": 50, "Public_K_1": " ", "Steckert_2": " ", "P3__kW_": 0, "Public_K_2": " ", "Steckert_3": " ", "P4__kW_": 0, "Public_K_3": " "}}, {"type": "Feature", "id": 7222, "geometry": {"type": "Point", "coordinates": [8.35232500000006, 50.095109]}, "properties": {"FID": 7222, "OBJECTID": 6424, "Betreiber": "Autobahn Tank & Rast GmbH", "Adresse": "Medenbach West", "Postleitza": "65207 Wiesbaden", "Bundesland": "Hessen", "Längengra": 8.352325, "Breitengra": 50.095109, "Inbetriebn": 1501200000000, "Anschlussl": 250, "Art_der_La": "Schnellladeeinrichtung", "Anzahl_Lad": 2, "Steckertyp": "DC Kupplung Combo, DC CHAdeMO", "P1__kW_": 50, "Public_Key": " ", "Steckert_1": "AC Kupplung Typ 2", "P2_in_kW": 42, "Public_K_1": " ", "Steckert_2": " ", "P3__kW_": 0, "Public_K_2": " ", "Steckert_3": " ", "P4__kW_": 0, "Public_K_3": " "}}, {"type": "Feature", "id": 7223, "geometry": {"type": "Point", "coordinates": [8.35360700000007, 50.095807]}, "properties": {"FID": 7223, "OBJECTID": 6425, "Betreiber": "Charge-ON GmbH", "Adresse": "Medenbach Ost BAB3", "Postleitza": "65207 Wiesbaden", "Bundesland": "Hessen", "Längengra": 8.353607, "Breitengra": 50.095807, "Inbetriebn": 1504137600000, "Anschlussl": 93, "Art_der_La": "Schnellladeeinrichtung", "Anzahl_Lad": 2, "Steckertyp": "AC Kupplung Typ 2", "P1__kW_": 43, "Public_Key": " ", "Steckert_1": "DC Kupplung Combo, DC CHAdeMO", "P2_in_kW": 50, "Public_K_1": " ", "Steckert_2": " ", "P3__kW_": 0, "Public_K_2": " ", "Steckert_3": " ", "P4__kW_": 0, "Public_K_3": " "}}, {"type": "Feature", "id": 7224, "geometry": {"type": "Point", "coordinates": [8.15993700000007, 50.1424450000001]}, "properties": {"FID": 7224, "OBJECTID": 6426, "Betreiber": "ESWE Versorgungs AG", "Adresse": "Altensteiner Str. 1", "Postleitza": "65232 Taunusstein", "Bundesland": "Hessen", "Längengra": 8.159937, "Breitengra": 50.142445, "Inbetriebn": 1343692800000, "Anschlussl": 44, "Art_der_La": "Normalladeeinrichtung", "Anzahl_Lad": 2, "Steckertyp": "AC Steckdose Typ 2", "P1__kW_": 22, "Public_Key": " ", "Steckert_1": "AC Steckdose Typ 2", "P2_in_kW": 22, "Public_K_1": " ", "Steckert_2": " ", "P3__kW_": 0, "Public_K_2": " ", "Steckert_3": " ", "P4__kW_": 0, "Public_K_3": " "}}, {"type": "Feature", "id": 7225, "geometry": {"type": "Point", "coordinates": [8.18363700000003, 50.156419]}, "properties": {"FID": 7225, "OBJECTID": 6427, "Betreiber": "ESWE Versorgungs AG", "Adresse": "Wilhelmstraße 6", "Postleitza": "65232 Taunusstein", "Bundesland": "Hessen", "Längengra": 8.183637, "Breitengra": 50.156419, "Inbetriebn": 1549238400000, "Anschlussl": 22, "Art_der_La": "Normalladeeinrichtung", "Anzahl_Lad": 2, "Steckertyp": "AC Steckdose Typ 2", "P1__kW_": 11, "Public_Key": " ", "Steckert_1": "AC Steckdose Typ 2", "P2_in_kW": 11, "Public_K_1": " ", "Steckert_2": " ", "P3__kW_": 0, "Public_K_2": " ", "Steckert_3": " ", "P4__kW_": 0, "Public_K_3": " "}}, {"type": "Feature", "id": 7226, "geometry": {"type": "Point", "coordinates": [8.18838200000005, 50.1533440000001]}, "properties": {"FID": 7226, "OBJECTID": 6428, "Betreiber": "ESWE Versorgungs AG", "Adresse": "Platter Straße 22", "Postleitza": "65232 Taunusstein", "Bundesland": "Hessen", "Längengra": 8.188382, "Breitengra": 50.153344, "Inbetriebn": 1541721600000, "Anschlussl": 44, "Art_der_La": "Normalladeeinrichtung", "Anzahl_Lad": 2, "Steckertyp": "AC Steckdose Typ 2", "P1__kW_": 22, "Public_Key": " ", "Steckert_1": "AC Steckdose Typ 2", "P2_in_kW": 22, "Public_K_1": " ", "Steckert_2": " ", "P3__kW_": 0, "Public_K_2": " ", "Steckert_3": " ", "P4__kW_": 0, "Public_K_3": " "}}, {"type": "Feature", "id": 7227, "geometry": {"type": "Point", "coordinates": [8.20473890000005, 50.12168]}, "properties": {"FID": 7227, "OBJECTID": 6429, "Betreiber": "Stadtverwaltung Hochheim am Main", "Adresse": "Königsberger Ring 5 b", "Postleitza": "65239 Hochheim am Main", "Bundesland": "Hessen", "Längengra": 8.2047389, "Breitengra": 50.12168, "Inbetriebn": 1561420800000, "Anschlussl": 22, "Art_der_La": "Normalladeeinrichtung", "Anzahl_Lad": 2, "Steckertyp": "AC Steckdose Typ 2", "P1__kW_": 22, "Public_Key": " ", "Steckert_1": "AC Steckdose Typ 2", "P2_in_kW": 22, "Public_K_1": " ", "Steckert_2": " ", "P3__kW_": 0, "Public_K_2": " ", "Steckert_3": " ", "P4__kW_": 0, "Public_K_3": " "}}, {"type": "Feature", "id": 7228, "geometry": {"type": "Point", "coordinates": [8.20475830000004, 50.12258]}, "properties": {"FID": 7228, "OBJECTID": 6430, "Betreiber": "Stadtverwaltung Hochheim am Main", "Adresse": "Königsberger Ring 5 b", "Postleitza": "65239 Hochheim am Main", "Bundesland": "Hessen", "Längengra": 8.2047583, "Breitengra": 50.12258, "Inbetriebn": 1561420800000, "Anschlussl": 22, "Art_der_La": "Normalladeeinrichtung", "Anzahl_Lad": 2, "Steckertyp": "AC Steckdose Typ 2", "P1__kW_": 22, "Public_Key": " ", "Steckert_1": "AC Steckdose Typ 2", "P2_in_kW": 22, "Public_K_1": " ", "Steckert_2": " ", "P3__kW_": 0, "Public_K_2": " ", "Steckert_3": " ", "P4__kW_": 0, "Public_K_3": " "}}, {"type": "Feature", "id": 7229, "geometry": {"type": "Point", "coordinates": [8.21274350000004, 50.110121]}, "properties": {"FID": 7229, "OBJECTID": 6431, "Betreiber": "Stadtverwaltung Hochheim am Main", "Adresse": "Massenheimer Landstraße", "Postleitza": "65239 Hochheim am Main", "Bundesland": "Hessen", "Längengra": 8.2127435, "Breitengra": 50.110121, "Inbetriebn": 1561939200000, "Anschlussl": 22, "Art_der_La": "Normalladeeinrichtung", "Anzahl_Lad": 2, "Steckertyp": "AC Steckdose Typ 2", "P1__kW_": 22, "Public_Key": " ", "Steckert_1": "AC Steckdose Typ 2", "P2_in_kW": 22, "Public_K_1": " ", "Steckert_2": " ", "P3__kW_": 0, "Public_K_2": " ", "Steckert_3": " ", "P4__kW_": 0, "Public_K_3": " "}}, {"type": "Feature", "id": 7230, "geometry": {"type": "Point", "coordinates": [8.21275000000003, 50.1101140000001]}, "properties": {"FID": 7230, "OBJECTID": 6432, "Betreiber": "Stadtverwaltung Hochheim am Main", "Adresse": "Massenheimer Landstraße", "Postleitza": "65239 Hochheim am Main", "Bundesland": "Hessen", "Längengra": 8.21275, "Breitengra": 50.110114, "Inbetriebn": 1561939200000, "Anschlussl": 22, "Art_der_La": "Normalladeeinrichtung", "Anzahl_Lad": 2, "Steckertyp": "AC Steckdose Typ 2", "P1__kW_": 22, "Public_Key": " ", "Steckert_1": "AC Steckdose Typ 2", "P2_in_kW": 22, "Public_K_1": " ", "Steckert_2": " ", "P3__kW_": 0, "Public_K_2": " ", "Steckert_3": " ", "P4__kW_": 0, "Public_K_3": " "}}, {"type": "Feature", "id": 7231, "geometry": {"type": "Point", "coordinates": [8.21278450000005, 50.1105640000001]}, "properties": {"FID": 7231, "OBJECTID": 6433, "Betreiber": "Stadtverwaltung Hochheim am Main", "Adresse": "Massenheimer Landstraße", "Postleitza": "65239 Hochheim am Main", "Bundesland": "Hessen", "Längengra": 8.2127845, "Breitengra": 50.110564, "Inbetriebn": 1561939200000, "Anschlussl": 22, "Art_der_La": "Normalladeeinrichtung", "Anzahl_Lad": 2, "Steckertyp": "AC Steckdose Typ 2", "P1__kW_": 22, "Public_Key": " ", "Steckert_1": "AC Steckdose Typ 2", "P2_in_kW": 22, "Public_K_1": " ", "Steckert_2": " ", "P3__kW_": 0, "Public_K_2": " ", "Steckert_3": " ", "P4__kW_": 0, "Public_K_3": " "}}, {"type": "Feature", "id": 7232, "geometry": {"type": "Point", "coordinates": [8.21280080000002, 50.110618]}, "properties": {"FID": 7232, "OBJECTID": 6434, "Betreiber": "Stadtverwaltung Hochheim am Main", "Adresse": "Massenheimer Landstraße", "Postleitza": "65239 Hochheim am Main", "Bundesland": "Hessen", "Längengra": 8.2128008, "Breitengra": 50.110618, "Inbetriebn": 1561939200000, "Anschlussl": 22, "Art_der_La": "Normalladeeinrichtung", "Anzahl_Lad": 2, "Steckertyp": "AC Steckdose Typ 2", "P1__kW_": 22, "Public_Key": " ", "Steckert_1": "AC Steckdose Typ 2", "P2_in_kW": 22, "Public_K_1": " ", "Steckert_2": " ", "P3__kW_": 0, "Public_K_2": " ", "Steckert_3": " ", "P4__kW_": 0, "Public_K_3": " "}}, {"type": "Feature", "id": 7240, "geometry": {"type": "Point", "coordinates": [8.15817600000003, 50.044601]}, "properties": {"FID": 7240, "OBJECTID": 6442, "Betreiber": "ESWE Versorgungs AG", "Adresse": "Im Grohenstück 5", "Postleitza": "65396 Walluf", "Bundesland": "Hessen", "Längengra": 8.158176, "Breitengra": 50.044601, "Inbetriebn": 1569801600000, "Anschlussl": 44, "Art_der_La": "Normalladeeinrichtung", "Anzahl_Lad": 2, "Steckertyp": "AC Steckdose Typ 2", "P1__kW_": 22, "Public_Key": " ", "Steckert_1": "AC Steckdose Typ 2", "P2_in_kW": 22, "Public_K_1": " ", "Steckert_2": " ", "P3__kW_": 0, "Public_K_2": " ", "Steckert_3": " ", "P4__kW_": 0, "Public_K_3": " "}}, {"type": "Feature", "id": 7241, "geometry": {"type": "Point", "coordinates": [8.16149500000006, 50.0446150000001]}, "properties": {"FID": 7241, "OBJECTID": 6443, "Betreiber": "ESWE Versorgungs AG", "Adresse": "Am Klingenweg 6", "Postleitza": "65396 Walluf", "Bundesland": "Hessen", "Längengra": 8.161495, "Breitengra": 50.044615, "Inbetriebn": 1569801600000, "Anschlussl": 44, "Art_der_La": "Normalladeeinrichtung", "Anzahl_Lad": 2, "Steckertyp": "AC Steckdose Typ 2", "P1__kW_": 22, "Public_Key": " ", "Steckert_1": "AC Steckdose Typ 2", "P2_in_kW": 22, "Public_K_1": " ", "Steckert_2": " ", "P3__kW_": 0, "Public_K_2": " ", "Steckert_3": " ", "P4__kW_": 0, "Public_K_3": " "}}, {"type": "Feature", "id": 7973, "geometry": {"type": "Point", "coordinates": [8.22970000000004, 50.07966]}, "properties": {"FID": 7973, "OBJECTID": 6375, "Betreiber": "ESWE Versorgungs AG", "Adresse": "Bismarckring", "Postleitza": "65183 Wiesbaden", "Bundesland": "Hessen", "Längengra": 8.2297, "Breitengra": 50.07966, "Inbetriebn": 1536537600000, "Anschlussl": 44, "Art_der_La": "Normalladeeinrichtung", "Anzahl_Lad": 2, "Steckertyp": "AC Steckdose Typ 2", "P1__kW_": 22, "Public_Key": " ", "Steckert_1": "AC Steckdose Typ 2", "P2_in_kW": 22, "Public_K_1": " ", "Steckert_2": " ", "P3__kW_": 0, "Public_K_2": " ", "Steckert_3": " ", "P4__kW_": 0, "Public_K_3": " "}}, {"type": "Feature", "id": 7974, "geometry": {"type": "Point", "coordinates": [8.23591400000004, 50.0827560000001]}, "properties": {"FID": 7974, "OBJECTID": 6376, "Betreiber": "ESWE Versorgungs AG", "Adresse": "Schwalbacher Straße", "Postleitza": "65183 Wiesbaden", "Bundesland": "Hessen", "Längengra": 8.235914, "Breitengra": 50.082756, "Inbetriebn": 1539648000000, "Anschlussl": 44, "Art_der_La": "Normalladeeinrichtung", "Anzahl_Lad": 2, "Steckertyp": "AC Steckdose Typ 2", "P1__kW_": 22, "Public_Key": " ", "Steckert_1": "AC Steckdose Typ 2", "P2_in_kW": 22, "Public_K_1": " ", "Steckert_2": " ", "P3__kW_": 0, "Public_K_2": " ", "Steckert_3": " ", "P4__kW_": 0, "Public_K_3": " "}}, {"type": "Feature", "id": 7975, "geometry": {"type": "Point", "coordinates": [8.23839200000003, 50.0838230000001]}, "properties": {"FID": 7975, "OBJECTID": 6377, "Betreiber": "ESWE Versorgungs AG", "Adresse": "Coulinstraße 1", "Postleitza": "65183 Wiesbaden", "Bundesland": "Hessen", "Längengra": 8.238392, "Breitengra": 50.083823, "Inbetriebn": 1541721600000, "Anschlussl": 44, "Art_der_La": "Normalladeeinrichtung", "Anzahl_Lad": 2, "Steckertyp": "AC Steckdose Typ 2", "P1__kW_": 22, "Public_Key": " ", "Steckert_1": "AC Steckdose Typ 2", "P2_in_kW": 22, "Public_K_1": " ", "Steckert_2": " ", "P3__kW_": 0, "Public_K_2": " ", "Steckert_3": " ", "P4__kW_": 0, "Public_K_3": " "}}, {"type": "Feature", "id": 7976, "geometry": {"type": "Point", "coordinates": [8.24185000000006, 50.0856200000001]}, "properties": {"FID": 7976, "OBJECTID": 6378, "Betreiber": "ESWE Versorgungs AG", "Adresse": "Kranzplatz", "Postleitza": "65183 Wiesbaden", "Bundesland": "Hessen", "Längengra": 8.24185, "Breitengra": 50.08562, "Inbetriebn": 1536537600000, "Anschlussl": 44, "Art_der_La": "Normalladeeinrichtung", "Anzahl_Lad": 2, "Steckertyp": "AC Steckdose Typ 2", "P1__kW_": 22, "Public_Key": " ", "Steckert_1": "AC Steckdose Typ 2", "P2_in_kW": 22, "Public_K_1": " ", "Steckert_2": " ", "P3__kW_": 0, "Public_K_2": " ", "Steckert_3": " ", "P4__kW_": 0, "Public_K_3": " "}}, {"type": "Feature", "id": 7977, "geometry": {"type": "Point", "coordinates": [8.24276500000008, 50.084509]}, "properties": {"FID": 7977, "OBJECTID": 6379, "Betreiber": "ESWE Versorgungs AG", "Adresse": "An den Quellen", "Postleitza": "65183 Wiesbaden", "Bundesland": "Hessen", "Längengra": 8.242765, "Breitengra": 50.084509, "Inbetriebn": 1539129600000, "Anschlussl": 44, "Art_der_La": "Normalladeeinrichtung", "Anzahl_Lad": 2, "Steckertyp": "AC Steckdose Typ 2", "P1__kW_": 22, "Public_Key": " ", "Steckert_1": "AC Steckdose Typ 2", "P2_in_kW": 22, "Public_K_1": " ", "Steckert_2": " ", "P3__kW_": 0, "Public_K_2": " ", "Steckert_3": " ", "P4__kW_": 0, "Public_K_3": " "}}, {"type": "Feature", "id": 7978, "geometry": {"type": "Point", "coordinates": [8.24442000000005, 50.086172]}, "properties": {"FID": 7978, "OBJECTID": 6380, "Betreiber": "ESWE Versorgungs AG", "Adresse": "Taunusstraße 3", "Postleitza": "65183 Wiesbaden", "Bundesland": "Hessen", "Längengra": 8.24442, "Breitengra": 50.086172, "Inbetriebn": 1562198400000, "Anschlussl": 22, "Art_der_La": "Normalladeeinrichtung", "Anzahl_Lad": 2, "Steckertyp": "AC Steckdose Typ 2", "P1__kW_": 22, "Public_Key": " ", "Steckert_1": "AC Steckdose Typ 2", "P2_in_kW": 22, "Public_K_1": " ", "Steckert_2": " ", "P3__kW_": 0, "Public_K_2": " ", "Steckert_3": " ", "P4__kW_": 0, "Public_K_3": " "}}, {"type": "Feature", "id": 7979, "geometry": {"type": "Point", "coordinates": [8.24442000000005, 50.086172]}, "properties": {"FID": 7979, "OBJECTID": 6381, "Betreiber": "ESWE Versorgungs AG", "Adresse": "Taunusstraße 3", "Postleitza": "65183 Wiesbaden", "Bundesland": "Hessen", "Längengra": 8.24442, "Breitengra": 50.086172, "Inbetriebn": 1562198400000, "Anschlussl": 22, "Art_der_La": "Normalladeeinrichtung", "Anzahl_Lad": 2, "Steckertyp": "AC Steckdose Typ 2", "P1__kW_": 22, "Public_Key": " ", "Steckert_1": "AC Steckdose Typ 2", "P2_in_kW": 22, "Public_K_1": " ", "Steckert_2": " ", "P3__kW_": 0, "Public_K_2": " ", "Steckert_3": " ", "P4__kW_": 0, "Public_K_3": " "}}, {"type": "Feature", "id": 7980, "geometry": {"type": "Point", "coordinates": [8.24442000000005, 50.086172]}, "properties": {"FID": 7980, "OBJECTID": 6382, "Betreiber": "ESWE Versorgungs AG", "Adresse": "Taunusstraße 3", "Postleitza": "65183 Wiesbaden", "Bundesland": "Hessen", "Längengra": 8.24442, "Breitengra": 50.086172, "Inbetriebn": 1562198400000, "Anschlussl": 22, "Art_der_La": "Normalladeeinrichtung", "Anzahl_Lad": 2, "Steckertyp": "AC Steckdose Typ 2", "P1__kW_": 22, "Public_Key": " ", "Steckert_1": "AC Steckdose Typ 2", "P2_in_kW": 22, "Public_K_1": " ", "Steckert_2": " ", "P3__kW_": 0, "Public_K_2": " ", "Steckert_3": " ", "P4__kW_": 0, "Public_K_3": " "}}, {"type": "Feature", "id": 7981, "geometry": {"type": "Point", "coordinates": [8.24442000000005, 50.086172]}, "properties": {"FID": 7981, "OBJECTID": 6383, "Betreiber": "ESWE Versorgungs AG", "Adresse": "Taunusstraße 3", "Postleitza": "65183 Wiesbaden", "Bundesland": "Hessen", "Längengra": 8.24442, "Breitengra": 50.086172, "Inbetriebn": 1562198400000, "Anschlussl": 22, "Art_der_La": "Normalladeeinrichtung", "Anzahl_Lad": 2, "Steckertyp": "AC Steckdose Typ 2", "P1__kW_": 22, "Public_Key": " ", "Steckert_1": "AC Steckdose Typ 2", "P2_in_kW": 22, "Public_K_1": " ", "Steckert_2": " ", "P3__kW_": 0, "Public_K_2": " ", "Steckert_3": " ", "P4__kW_": 0, "Public_K_3": " "}}, {"type": "Feature", "id": 7982, "geometry": {"type": "Point", "coordinates": [8.24442000000005, 50.086172]}, "properties": {"FID": 7982, "OBJECTID": 6384, "Betreiber": "ESWE Versorgungs AG", "Adresse": "Taunusstraße 3", "Postleitza": "65183 Wiesbaden", "Bundesland": "Hessen", "Längengra": 8.24442, "Breitengra": 50.086172, "Inbetriebn": 1562198400000, "Anschlussl": 22, "Art_der_La": "Normalladeeinrichtung", "Anzahl_Lad": 2, "Steckertyp": "AC Steckdose Typ 2", "P1__kW_": 22, "Public_Key": " ", "Steckert_1": "AC Steckdose Typ 2", "P2_in_kW": 22, "Public_K_1": " ", "Steckert_2": " ", "P3__kW_": 0, "Public_K_2": " ", "Steckert_3": " ", "P4__kW_": 0, "Public_K_3": " "}}, {"type": "Feature", "id": 7983, "geometry": {"type": "Point", "coordinates": [8.24442000000005, 50.086172]}, "properties": {"FID": 7983, "OBJECTID": 6385, "Betreiber": "ESWE Versorgungs AG", "Adresse": "Taunusstraße 3", "Postleitza": "65183 Wiesbaden", "Bundesland": "Hessen", "Längengra": 8.24442, "Breitengra": 50.086172, "Inbetriebn": 1562198400000, "Anschlussl": 22, "Art_der_La": "Normalladeeinrichtung", "Anzahl_Lad": 2, "Steckertyp": "AC Steckdose Typ 2", "P1__kW_": 22, "Public_Key": " ", "Steckert_1": "AC Steckdose Typ 2", "P2_in_kW": 22, "Public_K_1": " ", "Steckert_2": " ", "P3__kW_": 0, "Public_K_2": " ", "Steckert_3": " ", "P4__kW_": 0, "Public_K_3": " "}}, {"type": "Feature", "id": 7984, "geometry": {"type": "Point", "coordinates": [8.24442000000005, 50.086172]}, "properties": {"FID": 7984, "OBJECTID": 6386, "Betreiber": "ESWE Versorgungs AG", "Adresse": "Taunusstraße 3", "Postleitza": "65183 Wiesbaden", "Bundesland": "Hessen", "Längengra": 8.24442, "Breitengra": 50.086172, "Inbetriebn": 1562198400000, "Anschlussl": 22, "Art_der_La": "Normalladeeinrichtung", "Anzahl_Lad": 2, "Steckertyp": "AC Steckdose Typ 2", "P1__kW_": 22, "Public_Key": " ", "Steckert_1": "AC Steckdose Typ 2", "P2_in_kW": 22, "Public_K_1": " ", "Steckert_2": " ", "P3__kW_": 0, "Public_K_2": " ", "Steckert_3": " ", "P4__kW_": 0, "Public_K_3": " "}}, {"type": "Feature", "id": 7985, "geometry": {"type": "Point", "coordinates": [8.23477000000003, 50.0775]}, "properties": {"FID": 7985, "OBJECTID": 6387, "Betreiber": "ESWE Versorgungs AG", "Adresse": "Rheinstraße", "Postleitza": "65185 Wiesbaden", "Bundesland": "Hessen", "Längengra": 8.23477, "Breitengra": 50.0775, "Inbetriebn": 1536537600000, "Anschlussl": 44, "Art_der_La": "Normalladeeinrichtung", "Anzahl_Lad": 2, "Steckertyp": "AC Steckdose Typ 2", "P1__kW_": 22, "Public_Key": " ", "Steckert_1": "AC Steckdose Typ 2", "P2_in_kW": 22, "Public_K_1": " ", "Steckert_2": " ", "P3__kW_": 0, "Public_K_2": " ", "Steckert_3": " ", "P4__kW_": 0, "Public_K_3": " "}}, {"type": "Feature", "id": 7986, "geometry": {"type": "Point", "coordinates": [8.23694900000004, 50.071802]}, "properties": {"FID": 7986, "OBJECTID": 6388, "Betreiber": "ESWE Versorgungs AG", "Adresse": "Kaiser-Friedrich-Ring 1", "Postleitza": "65185 Wiesbaden", "Bundesland": "Hessen", "Längengra": 8.236949, "Breitengra": 50.071802, "Inbetriebn": 1541721600000, "Anschlussl": 44, "Art_der_La": "Normalladeeinrichtung", "Anzahl_Lad": 2, "Steckertyp": "AC Steckdose Typ 2", "P1__kW_": 22, "Public_Key": " ", "Steckert_1": "AC Steckdose Typ 2", "P2_in_kW": 22, "Public_K_1": " ", "Steckert_2": " ", "P3__kW_": 0, "Public_K_2": " ", "Steckert_3": " ", "P4__kW_": 0, "Public_K_3": " "}}, {"type": "Feature", "id": 7987, "geometry": {"type": "Point", "coordinates": [8.23880600000007, 50.0710560000001]}, "properties": {"FID": 7987, "OBJECTID": 6389, "Betreiber": "eeMobility GmbH", "Adresse": "Kaiser-Friedrich-Ring 75", "Postleitza": "65185 Wiesbaden", "Bundesland": "Hessen", "Längengra": 8.238806, "Breitengra": 50.071056, "Inbetriebn": 1509580800000, "Anschlussl": 11, "Art_der_La": "Normalladeeinrichtung", "Anzahl_Lad": 1, "Steckertyp": "AC Steckdose Typ 2", "P1__kW_": 11, "Public_Key": " ", "Steckert_1": " ", "P2_in_kW": 0, "Public_K_1": " ", "Steckert_2": " ", "P3__kW_": 0, "Public_K_2": " ", "Steckert_3": " ", "P4__kW_": 0, "Public_K_3": " "}}, {"type": "Feature", "id": 7988, "geometry": {"type": "Point", "coordinates": [8.23992700000002, 50.0706920000001]}, "properties": {"FID": 7988, "OBJECTID": 6390, "Betreiber": "ESWE Versorgungs AG", "Adresse": "Am Landeshaus 6", "Postleitza": "65185 Wiesbaden", "Bundesland": "Hessen", "Längengra": 8.239927, "Breitengra": 50.070692, "Inbetriebn": 1550448000000, "Anschlussl": 44, "Art_der_La": "Normalladeeinrichtung", "Anzahl_Lad": 2, "Steckertyp": "AC Steckdose Typ 2", "P1__kW_": 22, "Public_Key": " ", "Steckert_1": "AC Steckdose Typ 2", "P2_in_kW": 22, "Public_K_1": " ", "Steckert_2": " ", "P3__kW_": 0, "Public_K_2": " ", "Steckert_3": " ", "P4__kW_": 0, "Public_K_3": " "}}, {"type": "Feature", "id": 7989, "geometry": {"type": "Point", "coordinates": [8.24281000000008, 50.07307]}, "properties": {"FID": 7989, "OBJECTID": 6391, "Betreiber": "ESWE Versorgungs AG", "Adresse": "Bahnhofstraße", "Postleitza": "65185 Wiesbaden", "Bundesland": "Hessen", "Längengra": 8.24281, "Breitengra": 50.07307, "Inbetriebn": 1536537600000, "Anschlussl": 44, "Art_der_La": "Normalladeeinrichtung", "Anzahl_Lad": 2, "Steckertyp": "AC Steckdose Typ 2", "P1__kW_": 22, "Public_Key": " ", "Steckert_1": "AC Steckdose Typ 2", "P2_in_kW": 22, "Public_K_1": " ", "Steckert_2": " ", "P3__kW_": 0, "Public_K_2": " ", "Steckert_3": " ", "P4__kW_": 0, "Public_K_3": " "}}, {"type": "Feature", "id": 7990, "geometry": {"type": "Point", "coordinates": [8.24460900000003, 50.077372]}, "properties": {"FID": 7990, "OBJECTID": 6392, "Betreiber": "ESWE Versorgungs AG", "Adresse": "Friedrich-Ebert-Allee 1", "Postleitza": "65185 Wiesbaden", "Bundesland": "Hessen", "Längengra": 8.244609, "Breitengra": 50.077372, "Inbetriebn": 1523577600000, "Anschlussl": 88, "Art_der_La": "Normalladeeinrichtung", "Anzahl_Lad": 4, "Steckertyp": "AC Steckdose Typ 2", "P1__kW_": 22, "Public_Key": " ", "Steckert_1": "AC Steckdose Typ 2", "P2_in_kW": 22, "Public_K_1": " ", "Steckert_2": "AC Steckdose Typ 2", "P3__kW_": 22, "Public_K_2": " ", "Steckert_3": "AC Steckdose Typ 2", "P4__kW_": 22, "Public_K_3": " "}}, {"type": "Feature", "id": 7991, "geometry": {"type": "Point", "coordinates": [8.24460900000003, 50.077372]}, "properties": {"FID": 7991, "OBJECTID": 6393, "Betreiber": "ESWE Versorgungs AG", "Adresse": "Friedrich-Ebert-Allee 1", "Postleitza": "65185 Wiesbaden", "Bundesland": "Hessen", "Längengra": 8.244609, "Breitengra": 50.077372, "Inbetriebn": 1523577600000, "Anschlussl": 88, "Art_der_La": "Normalladeeinrichtung", "Anzahl_Lad": 4, "Steckertyp": "AC Steckdose Typ 2", "P1__kW_": 22, "Public_Key": " ", "Steckert_1": "AC Steckdose Typ 2", "P2_in_kW": 22, "Public_K_1": " ", "Steckert_2": "AC Steckdose Typ 2", "P3__kW_": 22, "Public_K_2": " ", "Steckert_3": "AC Steckdose Typ 2", "P4__kW_": 22, "Public_K_3": " "}}, {"type": "Feature", "id": 7992, "geometry": {"type": "Point", "coordinates": [8.25649280000005, 50.0569896000001]}, "properties": {"FID": 7992, "OBJECTID": 6394, "Betreiber": "ALDI GmbH & Co. KG", "Adresse": "Mainzer Straße 158", "Postleitza": "65187 Wiesbaden", "Bundesland": "Hessen", "Längengra": 8.2564928, "Breitengra": 50.0569896, "Inbetriebn": 1434499200000, "Anschlussl": 20, "Art_der_La": "Normalladeeinrichtung", "Anzahl_Lad": 1, "Steckertyp": "AC Steckdose Typ 2, DC Kupplung Combo, DC CHAdeMO", "P1__kW_": 20, "Public_Key": " ", "Steckert_1": " ", "P2_in_kW": 0, "Public_K_1": " ", "Steckert_2": " ", "P3__kW_": 0, "Public_K_2": " ", "Steckert_3": " ", "P4__kW_": 0, "Public_K_3": " "}}, {"type": "Feature", "id": 7993, "geometry": {"type": "Point", "coordinates": [8.24637000000007, 50.0697990000001]}, "properties": {"FID": 7993, "OBJECTID": 6395, "Betreiber": "ESWE Versorgungs AG", "Adresse": "Gartefeldstraße 22", "Postleitza": "65189 Wiesbaden", "Bundesland": "Hessen", "Längengra": 8.24637, "Breitengra": 50.069799, "Inbetriebn": 1541548800000, "Anschlussl": 44, "Art_der_La": "Normalladeeinrichtung", "Anzahl_Lad": 2, "Steckertyp": "AC Steckdose Typ 2", "P1__kW_": 22, "Public_Key": " ", "Steckert_1": "AC Steckdose Typ 2", "P2_in_kW": 22, "Public_K_1": " ", "Steckert_2": " ", "P3__kW_": 0, "Public_K_2": " ", "Steckert_3": " ", "P4__kW_": 0, "Public_K_3": " "}}, {"type": "Feature", "id": 7994, "geometry": {"type": "Point", "coordinates": [8.24756300000007, 50.081308]}, "properties": {"FID": 7994, "OBJECTID": 6396, "Betreiber": "ESWE Versorgungs AG", "Adresse": "Paulinenstraße", "Postleitza": "65189 Wiesbaden", "Bundesland": "Hessen", "Längengra": 8.247563, "Breitengra": 50.081308, "Inbetriebn": 1539129600000, "Anschlussl": 44, "Art_der_La": "Normalladeeinrichtung", "Anzahl_Lad": 2, "Steckertyp": "AC Steckdose Typ 2", "P1__kW_": 22, "Public_Key": " ", "Steckert_1": "AC Steckdose Typ 2", "P2_in_kW": 22, "Public_K_1": " ", "Steckert_2": " ", "P3__kW_": 0, "Public_K_2": " ", "Steckert_3": " ", "P4__kW_": 0, "Public_K_3": " "}}, {"type": "Feature", "id": 7995, "geometry": {"type": "Point", "coordinates": [8.25322400000005, 50.0813020000001]}, "properties": {"FID": 7995, "OBJECTID": 6397, "Betreiber": "ESWE Versorgungs AG", "Adresse": "Bierstadter Straße 23", "Postleitza": "65189 Wiesbaden", "Bundesland": "Hessen", "Längengra": 8.253224, "Breitengra": 50.081302, "Inbetriebn": 1557792000000, "Anschlussl": 22, "Art_der_La": "Normalladeeinrichtung", "Anzahl_Lad": 2, "Steckertyp": "AC Steckdose Typ 2", "P1__kW_": 22, "Public_Key": " ", "Steckert_1": "AC Steckdose Typ 2", "P2_in_kW": 22, "Public_K_1": " ", "Steckert_2": " ", "P3__kW_": 0, "Public_K_2": " ", "Steckert_3": " ", "P4__kW_": 0, "Public_K_3": " "}}, {"type": "Feature", "id": 7996, "geometry": {"type": "Point", "coordinates": [8.25326500000006, 50.0728310000001]}, "properties": {"FID": 7996, "OBJECTID": 6398, "Betreiber": "ESWE Versorgungs AG", "Adresse": "Dantestraße 37", "Postleitza": "65189 Wiesbaden", "Bundesland": "Hessen", "Längengra": 8.253265, "Breitengra": 50.072831, "Inbetriebn": 1521417600000, "Anschlussl": 44, "Art_der_La": "Normalladeeinrichtung", "Anzahl_Lad": 2, "Steckertyp": "AC Steckdose Typ 2", "P1__kW_": 22, "Public_Key": " ", "Steckert_1": "AC Steckdose Typ 2", "P2_in_kW": 22, "Public_K_1": " ", "Steckert_2": " ", "P3__kW_": 0, "Public_K_2": " ", "Steckert_3": " ", "P4__kW_": 0, "Public_K_3": " "}}, {"type": "Feature", "id": 7997, "geometry": {"type": "Point", "coordinates": [8.25412400000005, 50.0605100000001]}, "properties": {"FID": 7997, "OBJECTID": 6399, "Betreiber": "ESWE Versorgungs AG", "Adresse": "Mainzer Straße 140", "Postleitza": "65189 Wiesbaden", "Bundesland": "Hessen", "Längengra": 8.254124, "Breitengra": 50.06051, "Inbetriebn": 1294704000000, "Anschlussl": 88, "Art_der_La": "Normalladeeinrichtung", "Anzahl_Lad": 4, "Steckertyp": "AC Steckdose Typ 2", "P1__kW_": 22, "Public_Key": " ", "Steckert_1": "AC Steckdose Typ 2", "P2_in_kW": 22, "Public_K_1": " ", "Steckert_2": "AC Steckdose Typ 2", "P3__kW_": 2, "Public_K_2": " ", "Steckert_3": "AC Steckdose Typ 2", "P4__kW_": 22, "Public_K_3": " "}}, {"type": "Feature", "id": 7998, "geometry": {"type": "Point", "coordinates": [8.25635100000005, 50.060885]}, "properties": {"FID": 7998, "OBJECTID": 6400, "Betreiber": "ESWE Versorgungs AG", "Adresse": "Konradinerallee 25", "Postleitza": "65189 Wiesbaden", "Bundesland": "Hessen", "Längengra": 8.256351, "Breitengra": 50.060885, "Inbetriebn": 1497916800000, "Anschlussl": 44, "Art_der_La": "Normalladeeinrichtung", "Anzahl_Lad": 2, "Steckertyp": "AC Steckdose Typ 2", "P1__kW_": 22, "Public_Key": " ", "Steckert_1": "AC Steckdose Typ 2", "P2_in_kW": 22, "Public_K_1": " ", "Steckert_2": " ", "P3__kW_": 0, "Public_K_2": " ", "Steckert_3": " ", "P4__kW_": 0, "Public_K_3": " "}}, {"type": "Feature", "id": 7999, "geometry": {"type": "Point", "coordinates": [8.25844200000006, 50.0787960000001]}, "properties": {"FID": 7999, "OBJECTID": 6401, "Betreiber": "ESWE Versorgungs AG", "Adresse": "Moltkering 17", "Postleitza": "65189 Wiesbaden", "Bundesland": "Hessen", "Längengra": 8.258442, "Breitengra": 50.078796, "Inbetriebn": 1541721600000, "Anschlussl": 44, "Art_der_La": "Normalladeeinrichtung", "Anzahl_Lad": 2, "Steckertyp": "AC Steckdose Typ 2", "P1__kW_": 22, "Public_Key": " ", "Steckert_1": "AC Steckdose Typ 2", "P2_in_kW": 22, "Public_K_1": " ", "Steckert_2": " ", "P3__kW_": 0, "Public_K_2": " ", "Steckert_3": " ", "P4__kW_": 0, "Public_K_3": " "}}, {"type": "Feature", "id": 8000, "geometry": {"type": "Point", "coordinates": [8.26092800000004, 50.0644300000001]}, "properties": {"FID": 8000, "OBJECTID": 6402, "Betreiber": "ESWE Versorgungs AG", "Adresse": "Welschstraße 12", "Postleitza": "65189 Wiesbaden", "Bundesland": "Hessen", "Längengra": 8.260928, "Breitengra": 50.06443, "Inbetriebn": 1521417600000, "Anschlussl": 44, "Art_der_La": "Normalladeeinrichtung", "Anzahl_Lad": 2, "Steckertyp": "AC Steckdose Typ 2", "P1__kW_": 22, "Public_Key": " ", "Steckert_1": "AC Steckdose Typ 2", "P2_in_kW": 22, "Public_K_1": " ", "Steckert_2": " ", "P3__kW_": 0, "Public_K_2": " ", "Steckert_3": " ", "P4__kW_": 0, "Public_K_3": " "}}, {"type": "Feature", "id": 10599, "geometry": {"type": "Point", "coordinates": [8.25524200000007, 50.011824]}, "properties": {"FID": 10599, "OBJECTID": 10197, "Betreiber": "Mainzer Stadtwerke AG", "Adresse": "Goethestraße 40", "Postleitza": "55118 Mainz", "Bundesland": "Rheinland-Pfalz", "Längengra": 8.255242, "Breitengra": 50.011824, "Inbetriebn": 1542585600000, "Anschlussl": 44, "Art_der_La": "Normalladeeinrichtung", "Anzahl_Lad": 2, "Steckertyp": "AC Steckdose Typ 2", "P1__kW_": 22, "Public_Key": " ", "Steckert_1": "AC Steckdose Typ 2", "P2_in_kW": 22, "Public_K_1": " ", "Steckert_2": " ", "P3__kW_": 0, "Public_K_2": " ", "Steckert_3": " ", "P4__kW_": 0, "Public_K_3": " "}}, {"type": "Feature", "id": 10603, "geometry": {"type": "Point", "coordinates": [8.26317900000004, 50.0105360000001]}, "properties": {"FID": 10603, "OBJECTID": 10201, "Betreiber": "Mainzer Stadtwerke AG", "Adresse": "Rheinallee 41", "Postleitza": "55118 Mainz", "Bundesland": "Rheinland-Pfalz", "Längengra": 8.263179, "Breitengra": 50.010536, "Inbetriebn": 1568160000000, "Anschlussl": 44, "Art_der_La": "Normalladeeinrichtung", "Anzahl_Lad": 2, "Steckertyp": "AC Steckdose Typ 2", "P1__kW_": 22, "Public_Key": " ", "Steckert_1": "AC Steckdose Typ 2", "P2_in_kW": 22, "Public_K_1": " ", "Steckert_2": " ", "P3__kW_": 0, "Public_K_2": " ", "Steckert_3": " ", "P4__kW_": 0, "Public_K_3": " "}}, {"type": "Feature", "id": 10604, "geometry": {"type": "Point", "coordinates": [8.26321200000007, 50.010568]}, "properties": {"FID": 10604, "OBJECTID": 10202, "Betreiber": "Mainzer Stadtwerke AG", "Adresse": "Rheinallee 41", "Postleitza": "55118 Mainz", "Bundesland": "Rheinland-Pfalz", "Längengra": 8.263212, "Breitengra": 50.010568, "Inbetriebn": 1568160000000, "Anschlussl": 44, "Art_der_La": "Normalladeeinrichtung", "Anzahl_Lad": 2, "Steckertyp": "AC Steckdose Typ 2", "P1__kW_": 22, "Public_Key": " ", "Steckert_1": "AC Steckdose Typ 2", "P2_in_kW": 22, "Public_K_1": " ", "Steckert_2": " ", "P3__kW_": 0, "Public_K_2": " ", "Steckert_3": " ", "P4__kW_": 0, "Public_K_3": " "}}, {"type": "Feature", "id": 10605, "geometry": {"type": "Point", "coordinates": [8.26334000000003, 50.010585]}, "properties": {"FID": 10605, "OBJECTID": 10203, "Betreiber": "Mainzer Stadtwerke AG", "Adresse": "Rheinallee 41", "Postleitza": "55118 Mainz", "Bundesland": "Rheinland-Pfalz", "Längengra": 8.26334, "Breitengra": 50.010585, "Inbetriebn": 1568160000000, "Anschlussl": 22, "Art_der_La": "Normalladeeinrichtung", "Anzahl_Lad": 1, "Steckertyp": "AC Steckdose Typ 2", "P1__kW_": 22, "Public_Key": " ", "Steckert_1": " ", "P2_in_kW": 0, "Public_K_1": " ", "Steckert_2": " ", "P3__kW_": 0, "Public_K_2": " ", "Steckert_3": " ", "P4__kW_": 0, "Public_K_3": " "}}, {"type": "Feature", "id": 10606, "geometry": {"type": "Point", "coordinates": [8.26338200000004, 50.010605]}, "properties": {"FID": 10606, "OBJECTID": 10204, "Betreiber": "Mainzer Stadtwerke AG", "Adresse": "Rheinallee 41", "Postleitza": "55118 Mainz", "Bundesland": "Rheinland-Pfalz", "Längengra": 8.263382, "Breitengra": 50.010605, "Inbetriebn": 1568160000000, "Anschlussl": 44, "Art_der_La": "Normalladeeinrichtung", "Anzahl_Lad": 2, "Steckertyp": "AC Steckdose Typ 2", "P1__kW_": 22, "Public_Key": " ", "Steckert_1": "AC Steckdose Typ 2", "P2_in_kW": 22, "Public_K_1": " ", "Steckert_2": " ", "P3__kW_": 0, "Public_K_2": " ", "Steckert_3": " ", "P4__kW_": 0, "Public_K_3": " "}}, {"type": "Feature", "id": 10607, "geometry": {"type": "Point", "coordinates": [8.26340800000003, 50.0106880000001]}, "properties": {"FID": 10607, "OBJECTID": 10205, "Betreiber": "Mainzer Stadtwerke AG", "Adresse": "Rheinallee 41", "Postleitza": "55118 Mainz", "Bundesland": "Rheinland-Pfalz", "Längengra": 8.263408, "Breitengra": 50.010688, "Inbetriebn": 1568160000000, "Anschlussl": 22, "Art_der_La": "Normalladeeinrichtung", "Anzahl_Lad": 1, "Steckertyp": "AC Steckdose Typ 2", "P1__kW_": 22, "Public_Key": " ", "Steckert_1": " ", "P2_in_kW": 0, "Public_K_1": " ", "Steckert_2": " ", "P3__kW_": 0, "Public_K_2": " ", "Steckert_3": " ", "P4__kW_": 0, "Public_K_3": " "}}, {"type": "Feature", "id": 10608, "geometry": {"type": "Point", "coordinates": [8.26341900000006, 50.010504]}, "properties": {"FID": 10608, "OBJECTID": 10206, "Betreiber": "Mainzer Stadtwerke AG", "Adresse": "Rheinallee 41", "Postleitza": "55118 Mainz", "Bundesland": "Rheinland-Pfalz", "Längengra": 8.263419, "Breitengra": 50.010504, "Inbetriebn": 1568160000000, "Anschlussl": 44, "Art_der_La": "Normalladeeinrichtung", "Anzahl_Lad": 2, "Steckertyp": "AC Steckdose Typ 2", "P1__kW_": 22, "Public_Key": " ", "Steckert_1": "AC Steckdose Typ 2", "P2_in_kW": 22, "Public_K_1": " ", "Steckert_2": " ", "P3__kW_": 0, "Public_K_2": " ", "Steckert_3": " ", "P4__kW_": 0, "Public_K_3": " "}}, {"type": "Feature", "id": 10609, "geometry": {"type": "Point", "coordinates": [8.26351200000005, 50.0106940000001]}, "properties": {"FID": 10609, "OBJECTID": 10207, "Betreiber": "Mainzer Stadtwerke AG", "Adresse": "Rheinallee 41", "Postleitza": "55118 Mainz", "Bundesland": "Rheinland-Pfalz", "Längengra": 8.263512, "Breitengra": 50.010694, "Inbetriebn": 1568160000000, "Anschlussl": 44, "Art_der_La": "Normalladeeinrichtung", "Anzahl_Lad": 2, "Steckertyp": "AC Steckdose Typ 2", "P1__kW_": 22, "Public_Key": " ", "Steckert_1": "AC Steckdose Typ 2", "P2_in_kW": 22, "Public_K_1": " ", "Steckert_2": " ", "P3__kW_": 0, "Public_K_2": " ", "Steckert_3": " ", "P4__kW_": 0, "Public_K_3": " "}}, {"type": "Feature", "id": 10610, "geometry": {"type": "Point", "coordinates": [8.26354800000007, 50.0107310000001]}, "properties": {"FID": 10610, "OBJECTID": 10208, "Betreiber": "Mainzer Stadtwerke AG", "Adresse": "Rheinallee 41", "Postleitza": "55118 Mainz", "Bundesland": "Rheinland-Pfalz", "Längengra": 8.263548, "Breitengra": 50.010731, "Inbetriebn": 1568160000000, "Anschlussl": 44, "Art_der_La": "Normalladeeinrichtung", "Anzahl_Lad": 2, "Steckertyp": "AC Steckdose Typ 2", "P1__kW_": 22, "Public_Key": " ", "Steckert_1": "AC Steckdose Typ 2", "P2_in_kW": 22, "Public_K_1": " ", "Steckert_2": " ", "P3__kW_": 0, "Public_K_2": " ", "Steckert_3": " ", "P4__kW_": 0, "Public_K_3": " "}}, {"type": "Feature", "id": 10611, "geometry": {"type": "Point", "coordinates": [8.26358900000002, 50.010765]}, "properties": {"FID": 10611, "OBJECTID": 10209, "Betreiber": "Mainzer Stadtwerke AG", "Adresse": "Rheinallee 41", "Postleitza": "55118 Mainz", "Bundesland": "Rheinland-Pfalz", "Längengra": 8.263589, "Breitengra": 50.010765, "Inbetriebn": 1568160000000, "Anschlussl": 22, "Art_der_La": "Normalladeeinrichtung", "Anzahl_Lad": 1, "Steckertyp": "AC Steckdose Typ 2", "P1__kW_": 22, "Public_Key": " ", "Steckert_1": " ", "P2_in_kW": 0, "Public_K_1": " ", "Steckert_2": " ", "P3__kW_": 0, "Public_K_2": " ", "Steckert_3": " ", "P4__kW_": 0, "Public_K_3": " "}}, {"type": "Feature", "id": 10612, "geometry": {"type": "Point", "coordinates": [8.26364700000005, 50.010695]}, "properties": {"FID": 10612, "OBJECTID": 10210, "Betreiber": "Mainzer Stadtwerke AG", "Adresse": "Rheinallee 41", "Postleitza": "55118 Mainz", "Bundesland": "Rheinland-Pfalz", "Längengra": 8.263647, "Breitengra": 50.010695, "Inbetriebn": 1568160000000, "Anschlussl": 44, "Art_der_La": "Normalladeeinrichtung", "Anzahl_Lad": 2, "Steckertyp": "AC Steckdose Typ 2", "P1__kW_": 22, "Public_Key": " ", "Steckert_1": "AC Steckdose Typ 2", "P2_in_kW": 22, "Public_K_1": " ", "Steckert_2": " ", "P3__kW_": 0, "Public_K_2": " ", "Steckert_3": " ", "P4__kW_": 0, "Public_K_3": " "}}, {"type": "Feature", "id": 10613, "geometry": {"type": "Point", "coordinates": [8.26367500000003, 50.010475]}, "properties": {"FID": 10613, "OBJECTID": 10211, "Betreiber": "Mainzer Stadtwerke AG", "Adresse": "Rheinallee 41", "Postleitza": "55118 Mainz", "Bundesland": "Rheinland-Pfalz", "Längengra": 8.263675, "Breitengra": 50.010475, "Inbetriebn": 1568160000000, "Anschlussl": 22, "Art_der_La": "Normalladeeinrichtung", "Anzahl_Lad": 1, "Steckertyp": "AC Steckdose Typ 2", "P1__kW_": 22, "Public_Key": " ", "Steckert_1": " ", "P2_in_kW": 0, "Public_K_1": " ", "Steckert_2": " ", "P3__kW_": 0, "Public_K_2": " ", "Steckert_3": " ", "P4__kW_": 0, "Public_K_3": " "}}, {"type": "Feature", "id": 10614, "geometry": {"type": "Point", "coordinates": [8.26375200000007, 50.0105330000001]}, "properties": {"FID": 10614, "OBJECTID": 10212, "Betreiber": "Mainzer Stadtwerke AG", "Adresse": "Rheinallee 41", "Postleitza": "55118 Mainz", "Bundesland": "Rheinland-Pfalz", "Längengra": 8.263752, "Breitengra": 50.010533, "Inbetriebn": 1568160000000, "Anschlussl": 44, "Art_der_La": "Normalladeeinrichtung", "Anzahl_Lad": 2, "Steckertyp": "AC Steckdose Typ 2", "P1__kW_": 22, "Public_Key": " ", "Steckert_1": "AC Steckdose Typ 2", "P2_in_kW": 22, "Public_K_1": " ", "Steckert_2": " ", "P3__kW_": 0, "Public_K_2": " ", "Steckert_3": " ", "P4__kW_": 0, "Public_K_3": " "}}, {"type": "Feature", "id": 10635, "geometry": {"type": "Point", "coordinates": [8.16665500000005, 50.0216110000001]}, "properties": {"FID": 10635, "OBJECTID": 10233, "Betreiber": "Gemeindeverwaltung Budeneheim", "Adresse": "Berliner Straße 3", "Postleitza": "55257 Budenheim", "Bundesland": "Rheinland-Pfalz", "Längengra": 8.166655, "Breitengra": 50.021611, "Inbetriebn": 1535760000000, "Anschlussl": 44, "Art_der_La": "Normalladeeinrichtung", "Anzahl_Lad": 2, "Steckertyp": "AC Steckdose Typ 2", "P1__kW_": 22, "Public_Key": " ", "Steckert_1": "AC Steckdose Typ 2", "P2_in_kW": 22, "Public_K_1": " ", "Steckert_2": " ", "P3__kW_": 0, "Public_K_2": " ", "Steckert_3": " ", "P4__kW_": 0, "Public_K_3": " "}}, {"type": "Feature", "id": 10636, "geometry": {"type": "Point", "coordinates": [8.17016200000006, 50.02286]}, "properties": {"FID": 10636, "OBJECTID": 10234, "Betreiber": "Gemeindewerke Budenheim AöR", "Adresse": "Luisenstraße 7", "Postleitza": "55257 Budenheim", "Bundesland": "Rheinland-Pfalz", "Längengra": 8.170162, "Breitengra": 50.02286, "Inbetriebn": 1542240000000, "Anschlussl": 50, "Art_der_La": "Schnellladeeinrichtung", "Anzahl_Lad": 3, "Steckertyp": "AC Kupplung Typ 2", "P1__kW_": 43, "Public_Key": " ", "Steckert_1": "DC Kupplung Combo, DC CHAdeMO", "P2_in_kW": 50, "Public_K_1": " ", "Steckert_2": "DC Kupplung Combo, DC CHAdeMO", "P3__kW_": 50, "Public_K_2": " ", "Steckert_3": " ", "P4__kW_": 0, "Public_K_3": " "}}]}